LEMUR-2-NOGUECORREIG    
1 41996U 17008BA  17345.90142025  .00001713  00000-0  75262-4 0  9996
2 41996  97.4757  46.6644 0007535 315.6324  44.4308 15.23278598 44803
